{
  "type": "FeatureCollection",
  "features": [
    {
      "type": "Feature",
      "properties": {
        "norad_id": 67026,
        "name": "STARLINK-36176",
        "group": "last-30-days",
        "lat": 55.65945068904297,
        "lon": -33.76252088731913,
        "alt_km": 311.8349159866093,
        "timestamp": "2025-12-22T23:36:19.413499+00:00",
        "meta_object_name": "STARLINK-36176",
        "meta_object_id": "2025-293Z",
        "meta_epoch": "2025-12-22T20:00:01.999008",
        "meta_mean_motion": 15.85880574,
        "meta_eccentricity": 0.000389,
        "meta_inclination": 69.9926,
        "meta_ra_of_asc_node": 294.437,
        "meta_arg_of_pericenter": 262.4184,
        "meta_mean_anomaly": 22.0028,
        "meta_ephemeris_type": 0,
        "meta_classification_type": "U",
        "meta_norad_cat_id": 67026,
        "meta_element_set_no": 999,
        "meta_rev_at_epoch": 184,
        "meta_bstar": -0.0076718,
        "meta_mean_motion_dot": -0.01645734,
        "meta_mean_motion_ddot": 0,
        "tle_line1": "1 67026U 25293Z   25356.83335647 -.01645734  00000+0 -76718-2 0  9994",
        "tle_line2": "2 67026  69.9926 294.4370 0003890 262.4184  22.0028 15.85880574  1848"
      },
      "geometry": {
        "type": "Point",
        "coordinates": [
          -33.76252088731913,
          55.65945068904297
        ]
      }
    },
    {
      "type": "Feature",
      "properties": {
        "norad_id": 67027,
        "name": "STARLINK-36171",
        "group": "last-30-days",
        "lat": 53.858453115420936,
        "lon": -36.06219700737003,
        "alt_km": 311.99309115216056,
        "timestamp": "2025-12-22T23:36:19.413511+00:00",
        "meta_object_name": "STARLINK-36171",
        "meta_object_id": "2025-293AA",
        "meta_epoch": "2025-12-22T20:00:01.999008",
        "meta_mean_motion": 15.85883986,
        "meta_eccentricity": 0.0003899,
        "meta_inclination": 69.9924,
        "meta_ra_of_asc_node": 294.4399,
        "meta_arg_of_pericenter": 263.8019,
        "meta_mean_anomaly": 18.3799,
        "meta_ephemeris_type": 0,
        "meta_classification_type": "U",
        "meta_norad_cat_id": 67027,
        "meta_element_set_no": 999,
        "meta_rev_at_epoch": 184,
        "meta_bstar": -0.007621,
        "meta_mean_motion_dot": -0.01636451,
        "meta_mean_motion_ddot": 0,
        "tle_line1": "1 67027U 25293AA  25356.83335647 -.01636451  00000+0 -76210-2 0  9998",
        "tle_line2": "2 67027  69.9924 294.4399 0003899 263.8019  18.3799 15.85883986  1842"
      },
      "geometry": {
        "type": "Point",
        "coordinates": [
          -36.06219700737003,
          53.858453115420936
        ]
      }
    },
    {
      "type": "Feature",
      "properties": {
        "norad_id": 67028,
        "name": "STARLINK-36132",
        "group": "last-30-days",
        "lat": 59.660295523951625,
        "lon": -27.497056230107187,
        "alt_km": 311.5491009000352,
        "timestamp": "2025-12-22T23:36:19.413522+00:00",
        "meta_object_name": "STARLINK-36132",
        "meta_object_id": "2025-293AB",
        "meta_epoch": "2025-12-22T20:00:01.999008",
        "meta_mean_motion": 15.8583632,
        "meta_eccentricity": 0.0003972,
        "meta_inclination": 69.9929,
        "meta_ra_of_asc_node": 294.431,
        "meta_arg_of_pericenter": 265.723,
        "meta_mean_anomaly": 23.9305,
        "meta_ephemeris_type": 0,
        "meta_classification_type": "U",
        "meta_norad_cat_id": 67028,
        "meta_element_set_no": 999,
        "meta_rev_at_epoch": 184,
        "meta_bstar": -0.0076743,
        "meta_mean_motion_dot": -0.01643191,
        "meta_mean_motion_ddot": 0,
        "tle_line1": "1 67028U 25293AB  25356.83335647 -.01643191  00000+0 -76743-2 0  9999",
        "tle_line2": "2 67028  69.9929 294.4310 0003972 265.7230  23.9305 15.85836320  1844"
      },
      "geometry": {
        "type": "Point",
        "coordinates": [
          -27.497056230107187,
          59.660295523951625
        ]
      }
    },
    {
      "type": "Feature",
      "properties": {
        "norad_id": 67029,
        "name": "STARLINK-36190",
        "group": "last-30-days",
        "lat": 57.5064456244196,
        "lon": -31.100711774302372,
        "alt_km": 311.6686374758683,
        "timestamp": "2025-12-22T23:36:19.413532+00:00",
        "meta_object_name": "STARLINK-36190",
        "meta_object_id": "2025-293AC",
        "meta_epoch": "2025-12-22T20:00:01.999008",
        "meta_mean_motion": 15.85862972,
        "meta_eccentricity": 0.0003926,
        "meta_inclination": 69.993,
        "meta_ra_of_asc_node": 294.4346,
        "meta_arg_of_pericenter": 264.9116,
        "meta_mean_anomaly": 21.8727,
        "meta_ephemeris_type": 0,
        "meta_classification_type": "U",
        "meta_norad_cat_id": 67029,
        "meta_element_set_no": 999,
        "meta_rev_at_epoch": 184,
        "meta_bstar": -0.0076525,
        "meta_mean_motion_dot": -0.01640924,
        "meta_mean_motion_ddot": 0,
        "tle_line1": "1 67029U 25293AC  25356.83335647 -.01640924  00000+0 -76525-2 0  9999",
        "tle_line2": "2 67029  69.9930 294.4346 0003926 264.9116  21.8727 15.85862972  1846"
      },
      "geometry": {
        "type": "Point",
        "coordinates": [
          -31.100711774302372,
          57.5064456244196
        ]
      }
    },
    {
      "type": "Feature",
      "properties": {
        "norad_id": 67030,
        "name": "STARLINK-36138",
        "group": "last-30-days",
        "lat": 1.3488995535044135,
        "lon": 120.92046593404208,
        "alt_km": 327.9279493176364,
        "timestamp": "2025-12-22T23:36:19.413544+00:00",
        "meta_object_name": "STARLINK-36138",
        "meta_object_id": "2025-294A",
        "meta_epoch": "2025-12-22T20:00:01.999008",
        "meta_mean_motion": 15.81319252,
        "meta_eccentricity": 0.0001372,
        "meta_inclination": 42.9997,
        "meta_ra_of_asc_node": 120.392,
        "meta_arg_of_pericenter": 275.6572,
        "meta_mean_anomaly": 310.4507,
        "meta_ephemeris_type": 0,
        "meta_classification_type": "U",
        "meta_norad_cat_id": 67030,
        "meta_element_set_no": 999,
        "meta_rev_at_epoch": 173,
        "meta_bstar": -0.010629,
        "meta_mean_motion_dot": -0.01892235,
        "meta_mean_motion_ddot": 0,
        "tle_line1": "1 67030U 25294A   25356.83335647 -.01892235  00000+0 -10629-1 0  9998",
        "tle_line2": "2 67030  42.9997 120.3920 0001372 275.6572 310.4507 15.81319252  1730"
      },
      "geometry": {
        "type": "Point",
        "coordinates": [
          120.92046593404208,
          1.3488995535044135
        ]
      }
    },
    {
      "type": "Feature",
      "properties": {
        "norad_id": 67031,
        "name": "STARLINK-36150",
        "group": "last-30-days",
        "lat": 2.552958601001414,
        "lon": 122.2102201573939,
        "alt_km": 327.58404899669586,
        "timestamp": "2025-12-22T23:36:19.413556+00:00",
        "meta_object_name": "STARLINK-36150",
        "meta_object_id": "2025-294B",
        "meta_epoch": "2025-12-22T20:00:01.999008",
        "meta_mean_motion": 15.81327575,
        "meta_eccentricity": 0.0001455,
        "meta_inclination": 43.0001,
        "meta_ra_of_asc_node": 120.3872,
        "meta_arg_of_pericenter": 285.5257,
        "meta_mean_anomaly": 302.3444,
        "meta_ephemeris_type": 0,
        "meta_classification_type": "U",
        "meta_norad_cat_id": 67031,
        "meta_element_set_no": 999,
        "meta_rev_at_epoch": 192,
        "meta_bstar": -0.010634,
        "meta_mean_motion_dot": -0.01893727,
        "meta_mean_motion_ddot": 0,
        "tle_line1": "1 67031U 25294B   25356.83335647 -.01893727  00000+0 -10634-1 0  9992",
        "tle_line2": "2 67031  43.0001 120.3872 0001455 285.5257 302.3444 15.81327575  1925"
      },
      "geometry": {
        "type": "Point",
        "coordinates": [
          122.2102201573939,
          2.552958601001414
        ]
      }
    },
    {
      "type": "Feature",
      "properties": {
        "norad_id": 67032,
        "name": "STARLINK-36131",
        "group": "last-30-days",
        "lat": 5.414549402769793,
        "lon": 125.29494843024693,
        "alt_km": 327.4391688395044,
        "timestamp": "2025-12-22T23:36:19.413567+00:00",
        "meta_object_name": "STARLINK-36131",
        "meta_object_id": "2025-294C",
        "meta_epoch": "2025-12-22T20:00:01.999008",
        "meta_mean_motion": 15.81304019,
        "meta_eccentricity": 0.0001422,
        "meta_inclination": 43.0002,
        "meta_ra_of_asc_node": 120.3764,
        "meta_arg_of_pericenter": 279.1535,
        "meta_mean_anomaly": 312.9367,
        "meta_ephemeris_type": 0,
        "meta_classification_type": "U",
        "meta_norad_cat_id": 67032,
        "meta_element_set_no": 999,
        "meta_rev_at_epoch": 173,
        "meta_bstar": -0.010567,
        "meta_mean_motion_dot": -0.01881467,
        "meta_mean_motion_ddot": 0,
        "tle_line1": "1 67032U 25294C   25356.83335647 -.01881467  00000+0 -10567-1 0  9996",
        "tle_line2": "2 67032  43.0002 120.3764 0001422 279.1535 312.9367 15.81304019  1737"
      },
      "geometry": {
        "type": "Point",
        "coordinates": [
          125.29494843024693,
          5.414549402769793
        ]
      }
    }
  ]
}